{
  "type": "FeatureCollection",
  "features": [
    {
      "type": "Feature",
      "properties": {
        "norad_id": 41859,
        "name": "GSAT0207 (GALILEO 15)",
        "group": "gnss",
        "lat": 52.48430057770574,
        "lon": 170.35961857230635,
        "alt_km": 23218.255977830024,
        "timestamp": "2025-12-08T19:31:49.055491+00:00",
        "meta_object_name": "GSAT0207 (GALILEO 15)",
        "meta_object_id": "2016-069A",
        "meta_epoch": "2025-12-06T22:22:57.829728",
        "meta_mean_motion": 1.70474256,
        "meta_eccentricity": 0.00021753,
        "meta_inclination": 55.3787,
        "meta_ra_of_asc_node": 106.4111,
        "meta_arg_of_pericenter": 324.2379,
        "meta_mean_anomaly": 35.7022,
        "meta_ephemeris_type": 0,
        "meta_classification_type": "U",
        "meta_norad_cat_id": 41859,
        "meta_element_set_no": 999,
        "meta_rev_at_epoch": 5612,
        "meta_bstar": 0,
        "meta_mean_motion_dot": 7e-08,
        "meta_mean_motion_ddot": 0,
        "tle_line1": "1 41859U 16069A   25340.93261377  .00000007  00000+0  00000+0 0  9996",
        "tle_line2": "2 41859  55.3787 106.4111 0002175 324.2379  35.7022  1.70474256 56122"
      },
      "geometry": {
        "type": "Point",
        "coordinates": [
          170.35961857230635,
          52.48430057770574
        ]
      }
    },
    {
      "type": "Feature",
      "properties": {
        "norad_id": 41860,
        "name": "GSAT0212 (GALILEO 16)",
        "group": "gnss",
        "lat": 12.799962487942295,
        "lon": -82.67819903573579,
        "alt_km": 23225.10914718722,
        "timestamp": "2025-12-08T19:31:49.055501+00:00",
        "meta_object_name": "GSAT0212 (GALILEO 16)",
        "meta_object_id": "2016-069B",
        "meta_epoch": "2025-12-06T04:47:33.838080",
        "meta_mean_motion": 1.70474471,
        "meta_eccentricity": 0.00022225,
        "meta_inclination": 55.376,
        "meta_ra_of_asc_node": 106.4267,
        "meta_arg_of_pericenter": 32.4045,
        "meta_mean_anomaly": 327.5613,
        "meta_ephemeris_type": 0,
        "meta_classification_type": "U",
        "meta_norad_cat_id": 41860,
        "meta_element_set_no": 999,
        "meta_rev_at_epoch": 5636,
        "meta_bstar": 0,
        "meta_mean_motion_dot": 6e-08,
        "meta_mean_motion_ddot": 0,
        "tle_line1": "1 41860U 16069B   25340.19969720  .00000006  00000+0  00000+0 0  9992",
        "tle_line2": "2 41860  55.3760 106.4267 0002222  32.4045 327.5613  1.70474471 56361"
      },
      "geometry": {
        "type": "Point",
        "coordinates": [
          -82.67819903573579,
          12.799962487942295
        ]
      }
    },
    {
      "type": "Feature",
      "properties": {
        "norad_id": 41861,
        "name": "GSAT0213 (GALILEO 17)",
        "group": "gnss",
        "lat": -46.20464776296511,
        "lon": 60.31552141271547,
        "alt_km": 23221.06150804686,
        "timestamp": "2025-12-08T19:31:49.055511+00:00",
        "meta_object_name": "GSAT0213 (GALILEO 17)",
        "meta_object_id": "2016-069C",
        "meta_epoch": "2025-12-07T03:41:32.905248",
        "meta_mean_motion": 1.70474767,
        "meta_eccentricity": 0.00022126,
        "meta_inclination": 55.379,
        "meta_ra_of_asc_node": 106.408,
        "meta_arg_of_pericenter": 283.542,
        "meta_mean_anomaly": 76.3889,
        "meta_ephemeris_type": 0,
        "meta_classification_type": "U",
        "meta_norad_cat_id": 41861,
        "meta_element_set_no": 999,
        "meta_rev_at_epoch": 5624,
        "meta_bstar": 0,
        "meta_mean_motion_dot": 7e-08,
        "meta_mean_motion_ddot": 0,
        "tle_line1": "1 41861U 16069C   25341.15385307  .00000007  00000+0  00000+0 0  9994",
        "tle_line2": "2 41861  55.3790 106.4080 0002212 283.5420  76.3889  1.70474767 56242"
      },
      "geometry": {
        "type": "Point",
        "coordinates": [
          60.31552141271547,
          -46.20464776296511
        ]
      }
    },
    {
      "type": "Feature",
      "properties": {
        "norad_id": 41862,
        "name": "GSAT0214 (GALILEO 18)",
        "group": "gnss",
        "lat": -23.62230665193822,
        "lon": -56.08751289504055,
        "alt_km": 23224.72426342844,
        "timestamp": "2025-12-08T19:31:49.055520+00:00",
        "meta_object_name": "GSAT0214 (GALILEO 18)",
        "meta_object_id": "2016-069D",
        "meta_epoch": "2025-12-07T07:11:47.189472",
        "meta_mean_motion": 1.70474588,
        "meta_eccentricity": 0.00012146,
        "meta_inclination": 55.3773,
        "meta_ra_of_asc_node": 106.3967,
        "meta_arg_of_pericenter": 290.4025,
        "meta_mean_anomaly": 69.5406,
        "meta_ephemeris_type": 0,
        "meta_classification_type": "U",
        "meta_norad_cat_id": 41862,
        "meta_element_set_no": 999,
        "meta_rev_at_epoch": 5637,
        "meta_bstar": 0,
        "meta_mean_motion_dot": 7e-08,
        "meta_mean_motion_ddot": 0,
        "tle_line1": "1 41862U 16069D   25341.29985173  .00000007  00000+0  00000+0 0  9997",
        "tle_line2": "2 41862  55.3773 106.3967 0001214 290.4025  69.5406  1.70474588 56370"
      },
      "geometry": {
        "type": "Point",
        "coordinates": [
          -56.08751289504055,
          -23.62230665193822
        ]
      }
    },
    {
      "type": "Feature",
      "properties": {
        "norad_id": 42709,
        "name": "SES-15 (WAAS/PRN 133)",
        "group": "gnss",
        "lat": -0.0401878490710821,
        "lon": -118.42108522924983,
        "alt_km": 35786.00623088352,
        "timestamp": "2025-12-08T19:31:49.055530+00:00",
        "meta_object_name": "SES-15 (WAAS/PRN 133)",
        "meta_object_id": "2017-026A",
        "meta_epoch": "2025-12-08T05:44:47.292864",
        "meta_mean_motion": 1.00266538,
        "meta_eccentricity": 5.142e-05,
        "meta_inclination": 0.0198,
        "meta_ra_of_asc_node": 348.5244,
        "meta_arg_of_pericenter": 299.3399,
        "meta_mean_anomaly": 106.4104,
        "meta_ephemeris_type": 0,
        "meta_classification_type": "U",
        "meta_norad_cat_id": 42709,
        "meta_element_set_no": 999,
        "meta_rev_at_epoch": 551,
        "meta_bstar": 0,
        "meta_mean_motion_dot": 6.3e-07,
        "meta_mean_motion_ddot": 0,
        "tle_line1": "1 42709U 17026A   25342.23943626  .00000063  00000+0  00000+0 0  9996",
        "tle_line2": "2 42709   0.0198 348.5244 0000514 299.3399 106.4104  1.00266538  5514"
      },
      "geometry": {
        "type": "Point",
        "coordinates": [
          -118.42108522924983,
          -0.0401878490710821
        ]
      }
    },
    {
      "type": "Feature",
      "properties": {
        "norad_id": 42738,
        "name": "QZS-2 (QZSS/PRN 194)",
        "group": "gnss",
        "lat": -39.62764697644439,
        "lon": 150.6604621992603,
        "alt_km": 32606.121877093592,
        "timestamp": "2025-12-08T19:31:49.055542+00:00",
        "meta_object_name": "QZS-2 (QZSS/PRN 194)",
        "meta_object_id": "2017-028A",
        "meta_epoch": "2025-12-07T14:16:11.320608",
        "meta_mean_motion": 1.0028442,
        "meta_eccentricity": 0.07584265,
        "meta_inclination": 39.7227,
        "meta_ra_of_asc_node": 245.9588,
        "meta_arg_of_pericenter": 269.4237,
        "meta_mean_anomaly": 276.9001,
        "meta_ephemeris_type": 0,
        "meta_classification_type": "U",
        "meta_norad_cat_id": 42738,
        "meta_element_set_no": 999,
        "meta_rev_at_epoch": 570,
        "meta_bstar": 0,
        "meta_mean_motion_dot": -1.76e-06,
        "meta_mean_motion_ddot": 0,
        "tle_line1": "1 42738U 17028A   25341.59457547 -.00000176  00000+0  00000+0 0  9996",
        "tle_line2": "2 42738  39.7227 245.9588 0758426 269.4237 276.9001  1.00284420  5700"
      },
      "geometry": {
        "type": "Point",
        "coordinates": [
          150.6604621992603,
          -39.62764697644439
        ]
      }
    },
    {
      "type": "Feature",
      "properties": {
        "norad_id": 42917,
        "name": "QZS-3 (QZSS/PRN 199)",
        "group": "gnss",
        "lat": -0.0495839739597465,
        "lon": 137.78761506660828,
        "alt_km": 35790.93213794615,
        "timestamp": "2025-12-08T19:31:49.055555+00:00",
        "meta_object_name": "QZS-3 (QZSS/PRN 199)",
        "meta_object_id": "2017-048A",
        "meta_epoch": "2025-12-08T07:21:35.625312",
        "meta_mean_motion": 1.00273809,
        "meta_eccentricity": 0.00021882,
        "meta_inclination": 0.0656,
        "meta_ra_of_asc_node": 208.7923,
        "meta_arg_of_pericenter": 54.1722,
        "meta_mean_anomaly": 51.7887,
        "meta_ephemeris_type": 0,
        "meta_classification_type": "U",
        "meta_norad_cat_id": 42917,
        "meta_element_set_no": 999,
        "meta_rev_at_epoch": 3034,
        "meta_bstar": 0,
        "meta_mean_motion_dot": -3.45e-06,
        "meta_mean_motion_ddot": 0,
        "tle_line1": "1 42917U 17048A   25342.30666233 -.00000345  00000+0  00000+0 0  9999",
        "tle_line2": "2 42917   0.0656 208.7923 0002188  54.1722  51.7887  1.00273809 30349"
      },
      "geometry": {
        "type": "Point",
        "coordinates": [
          137.78761506660828,
          -0.0495839739597465
        ]
      }
    }
  ]
}